#aV2016  5 19  0  0  0.00000000     288 DD+AD WGS84 FIT  NGA
## 1897 345600.00000000   300.00000000 57527 0.0000000000000
+   31     1  2  3  5  6  7  8  9 10 11 12 13 14 15 16 17 18
+         19 20 21 22 23 24 25 26 27 28 29 30 31 32  0  0  0
+          0  0  0  0  0  0  0  0  0  0  0  0  0  0  0  0  0
+          0  0  0  0  0  0  0  0  0  0  0  0  0  0  0  0  0
+          0  0  0  0  0  0  0  0  0  0  0  0  0  0  0  0  0
++         2  2  2  2  2  2  2  2  2  2  2  2  2  2  2  2  2
++         2  2  2  2  2  2  2  2  2  2  2  2  2  2  0  0  0
++         0  0  0  0  0  0  0  0  0  0  0  0  0  0  0  0  0
++         0  0  0  0  0  0  0  0  0  0  0  0  0  0  0  0  0
++         0  0  0  0  0  0  0  0  0  0  0  0  0  0  0  0  0
%c cc cc ccc ccc cccc cccc cccc cccc ccccc ccccc ccccc ccccc
%c cc cc ccc ccc cccc cccc cccc cccc ccccc ccccc ccccc ccccc
%f  0.0000000  0.000000000  0.00000000000  0.000000000000000
%f  0.0000000  0.000000000  0.00000000000  0.000000000000000
%i    0    0    0    0      0      0      0      0         0
%i    0    0    0    0      0      0      0      0         0
/*      NGA, ST. LOUIS,MO.                                  
/*   EPHEMERIS COMPUTED FROM 2 DAYS OF DATA                 
/*   EPOCHA v2.4 SMOOTHER                                   
/*   G1762 IERS2010 SATAF SATAPC                            
*  2016  5 19 18 55  0.00000000
P  1  12101.069593 -21522.726982  -9542.502806     20.898125                    
V  1  10374.775902  -6711.205292  28754.280791      0.012037                    
P  2 -20857.908366  12798.651033  -9381.555282    590.877448                    
V  2   5984.967861 -11712.463121 -28375.393896     -0.022758                    
P  3   3744.749084 -14783.579433 -21738.591103    -59.286923                    
V  3  26737.333769   6949.835399   -124.850549     -0.037263                    
P  5 -22047.932764   4968.382439  14046.055619   -119.567807                    
V  5 -16805.642800  -6611.595599 -23729.664484      0.030322                    
P  6 -17643.295859  -1613.469234 -19774.947972    192.555706                    
V  6  16768.509329 -18752.704358 -13417.451541      0.054756                    
P  7  -2624.793516 -16967.288829  20287.809983    453.648700                    
V  7  19169.134300 -16946.807888 -12168.736539     -0.022253                    
P  8   8197.607297 -17525.983516  18230.980849    -35.733877                    
V  8   7742.943161  21764.300555  17526.285242     -0.014034                    
P  9  -7396.656982 -25498.148382    209.038308    132.204257                    
V  9   2812.455224  -1093.923469 -31648.516512      0.073177                    
P 10  23374.833128  10808.204816   6659.991208    -26.147763                    
V 10  -8818.432073    503.601316  30158.057249     -0.089273                    
P 11  10147.950922 -24521.906121   -494.851996   -647.482198                    
V 11   4453.081834   1917.175570  30283.656017     -0.014204                    
P 12  -7556.624806  12822.096947 -22112.860294    380.189731                    
V 12 -26304.609824  -8673.338611   4192.842783      0.011958                    
P 13 -13018.459595   9483.424530  21007.988864    -18.945612                    
V 13  -4842.464134 -26488.964278   8816.459091     -0.026164                    
P 14  14909.046984  13108.745394 -17469.896255    -14.720509                    
V 14   2786.464264  22500.492046  18827.298412     -0.021078                    
P 15  -5766.226958  20086.409697  16065.031412   -311.594194                    
V 15  -9298.003196 -18866.652014  20443.279221     -0.016688                    
P 16  22640.452019  -2008.978860  13959.616290    -16.507941                    
V 16  16377.265648   6813.268403 -25014.221091      0.025614                    
P 17 -13919.241095 -17272.392732 -14415.321855   -203.772718                    
V 17  -2490.020796 -18686.032622  24063.219273     -0.001224                    
P 18  14160.000522  15962.511424  16514.765735    517.351932                    
V 18 -19985.171666  -2237.590910  19703.383109      0.041029                    
P 19 -15459.489047  -6672.218791 -20684.976451   -525.675896                    
V 19  -3528.511753 -25562.720898  11375.797208      0.000250                    
P 20  -7791.695411  14472.654667  20721.007791    413.219200                    
V 20 -26267.642552  -5294.118586  -6090.337948      0.023356                    
P 21   6890.306429  15470.721606  21170.148661   -523.191137                    
V 21 -17928.819943  17910.500629  -7774.047890     -0.012665                    
P 22  14033.936611 -11656.234992 -19105.386582    338.922933                    
V 22  23889.787058   7125.395823  12910.113490     -0.082170                    
P 23      0.414401 -24622.664265  -9165.343674   -174.480524                    
V 23   6467.908967  10726.447187 -28671.558774     -0.016630                    
P 24 -14166.162774  21501.598295  -6139.708011    -17.295255                    
V 24  -7658.865577   3475.797139  30320.082118     -0.006099                    
P 25   6134.371555  15901.351935 -20548.783505   -174.405789                    
V 25 -25049.050068  -5814.802041 -11862.517614     -0.070613                    
P 26  26005.428557   3439.690455   4329.155392   -369.346183                    
V 26   4660.081095   3999.851679 -31079.671977     -0.122480                    
P 27  13726.214330  -6243.172418  21822.313025     94.231887                    
V 27   7786.341162  26650.864801   2888.152212      0.040643                    
P 28 -21513.150535 -13392.343935   8649.095797    524.150838                    
V 28  10041.567388   1759.769068  29836.836340      0.026705                    
P 29   3788.685112  26167.393265  -2756.500395    657.144853                    
V 29  -2923.267694  -2946.210712 -31841.933836     -0.000716                    
P 30 -11519.988683 -10322.339168  21584.892694    126.538092                    
V 30  20439.918518 -18336.864563   2041.268983      0.030493                    
P 31  19365.437441  -1252.951783 -18195.091978    268.194553                    
V 31 -15938.804068  16832.851064 -17667.655476     -0.019277                    
P 32  15612.012480  14543.703920 -15815.918043     -8.679761                    
V 32   3591.201111  19868.468843  21791.508551     -0.061763                    
EOF
